{
  "type": "FeatureCollection",
  "features": [
    {
      "type": "Feature",
      "properties": {
        "norad_id": 46805,
        "name": "COSMOS 2547 (705K)",
        "group": "glo-ops",
        "lat": 49.583895726476406,
        "lon": -15.493051121582043,
        "alt_km": 19128.53869778023,
        "timestamp": "2025-12-20T07:33:51.074038+00:00",
        "meta_object_name": "COSMOS 2547 (705K)",
        "meta_object_id": "2020-075A",
        "meta_epoch": "2025-12-19T05:12:13.762080",
        "meta_mean_motion": 2.13100175,
        "meta_eccentricity": 0.0006125,
        "meta_inclination": 64.5965,
        "meta_ra_of_asc_node": 198.4802,
        "meta_arg_of_pericenter": 227.9307,
        "meta_mean_anomaly": 132.0972,
        "meta_ephemeris_type": 0,
        "meta_classification_type": "U",
        "meta_norad_cat_id": 46805,
        "meta_element_set_no": 999,
        "meta_rev_at_epoch": 4007,
        "meta_bstar": 0,
        "meta_mean_motion_dot": 1.06e-06,
        "meta_mean_motion_ddot": 0,
        "tle_line1": "1 46805U 20075A   25353.21682595  .00000106  00000+0  00000+0 0  9998",
        "tle_line2": "2 46805  64.5965 198.4802 0006125 227.9307 132.0972  2.13100175 40071"
      },
      "geometry": {
        "type": "Point",
        "coordinates": [
          -15.493051121582043,
          49.583895726476406
        ]
      }
    },
    {
      "type": "Feature",
      "properties": {
        "norad_id": 52984,
        "name": "COSMOS 2557 (706K)",
        "group": "glo-ops",
        "lat": -3.728979466300251,
        "lon": -41.021954025012846,
        "alt_km": 19123.635503594473,
        "timestamp": "2025-12-20T07:33:51.074049+00:00",
        "meta_object_name": "COSMOS 2557 (706K)",
        "meta_object_id": "2022-075A",
        "meta_epoch": "2025-12-18T21:54:24.162624",
        "meta_mean_motion": 2.1310197,
        "meta_eccentricity": 0.00135327,
        "meta_inclination": 64.4064,
        "meta_ra_of_asc_node": 320.8341,
        "meta_arg_of_pericenter": 277.9279,
        "meta_mean_anomaly": 81.9104,
        "meta_ephemeris_type": 0,
        "meta_classification_type": "U",
        "meta_norad_cat_id": 52984,
        "meta_element_set_no": 999,
        "meta_rev_at_epoch": 2687,
        "meta_bstar": 0,
        "meta_mean_motion_dot": -6.2e-07,
        "meta_mean_motion_ddot": 0,
        "tle_line1": "1 52984U 22075A   25352.91277966 -.00000062  00000+0  00000+0 0  9995",
        "tle_line2": "2 52984  64.4064 320.8341 0013532 277.9279  81.9104  2.13101970 26872"
      },
      "geometry": {
        "type": "Point",
        "coordinates": [
          -41.021954025012846,
          -3.728979466300251
        ]
      }
    },
    {
      "type": "Feature",
      "properties": {
        "norad_id": 54031,
        "name": "COSMOS 2559 (707K)",
        "group": "glo-ops",
        "lat": 40.03524608802957,
        "lon": 117.09068442976807,
        "alt_km": 19109.390328833386,
        "timestamp": "2025-12-20T07:33:51.074060+00:00",
        "meta_object_name": "COSMOS 2559 (707K)",
        "meta_object_id": "2022-130A",
        "meta_epoch": "2025-12-19T04:49:46.570944",
        "meta_mean_motion": 2.13101385,
        "meta_eccentricity": 0.0011608,
        "meta_inclination": 64.3786,
        "meta_ra_of_asc_node": 320.9138,
        "meta_arg_of_pericenter": 191.996,
        "meta_mean_anomaly": 167.9688,
        "meta_ephemeris_type": 0,
        "meta_classification_type": "U",
        "meta_norad_cat_id": 54031,
        "meta_element_set_no": 999,
        "meta_rev_at_epoch": 2485,
        "meta_bstar": 0,
        "meta_mean_motion_dot": -6.1e-07,
        "meta_mean_motion_ddot": 0,
        "tle_line1": "1 54031U 22130A   25353.20123346 -.00000061  00000+0  00000+0 0  9996",
        "tle_line2": "2 54031  64.3786 320.9138 0011608 191.9960 167.9688  2.13101385 24854"
      },
      "geometry": {
        "type": "Point",
        "coordinates": [
          117.09068442976807,
          40.03524608802957
        ]
      }
    },
    {
      "type": "Feature",
      "properties": {
        "norad_id": 54377,
        "name": "COSMOS 2564 (761)",
        "group": "glo-ops",
        "lat": -60.454031325245055,
        "lon": 75.10472640144307,
        "alt_km": 19122.262190517304,
        "timestamp": "2025-12-20T07:33:51.074070+00:00",
        "meta_object_name": "COSMOS 2564 (761)",
        "meta_object_id": "2022-161A",
        "meta_epoch": "2025-12-19T01:05:24.764064",
        "meta_mean_motion": 2.13102078,
        "meta_eccentricity": 0.0008559,
        "meta_inclination": 64.7386,
        "meta_ra_of_asc_node": 198.6894,
        "meta_arg_of_pericenter": 204.0173,
        "meta_mean_anomaly": 156.0236,
        "meta_ephemeris_type": 0,
        "meta_classification_type": "U",
        "meta_norad_cat_id": 54377,
        "meta_element_set_no": 999,
        "meta_rev_at_epoch": 2379,
        "meta_bstar": 0,
        "meta_mean_motion_dot": 1.07e-06,
        "meta_mean_motion_ddot": 0,
        "tle_line1": "1 54377U 22161A   25353.04542551  .00000107  00000+0  00000+0 0  9998",
        "tle_line2": "2 54377  64.7386 198.6894 0008559 204.0173 156.0236  2.13102078 23799"
      },
      "geometry": {
        "type": "Point",
        "coordinates": [
          75.10472640144307,
          -60.454031325245055
        ]
      }
    },
    {
      "type": "Feature",
      "properties": {
        "norad_id": 57517,
        "name": "COSMOS 2569 (703K)",
        "group": "glo-ops",
        "lat": -54.502030755611344,
        "lon": -61.00254630226368,
        "alt_km": 19115.821205910295,
        "timestamp": "2025-12-20T07:33:51.074086+00:00",
        "meta_object_name": "COSMOS 2569 (703K)",
        "meta_object_id": "2023-114A",
        "meta_epoch": "2025-12-19T12:40:20.363808",
        "meta_mean_motion": 2.13104046,
        "meta_eccentricity": 0.0010771,
        "meta_inclination": 65.1977,
        "meta_ra_of_asc_node": 78.6841,
        "meta_arg_of_pericenter": 287.0303,
        "meta_mean_anomaly": 72.8809,
        "meta_ephemeris_type": 0,
        "meta_classification_type": "U",
        "meta_norad_cat_id": 57517,
        "meta_element_set_no": 999,
        "meta_rev_at_epoch": 1843,
        "meta_bstar": 0,
        "meta_mean_motion_dot": -2.7e-07,
        "meta_mean_motion_ddot": 0,
        "tle_line1": "1 57517U 23114A   25353.52801347 -.00000027  00000+0  00000+0 0  9992",
        "tle_line2": "2 57517  65.1977  78.6841 0010771 287.0303  72.8809  2.13104046 18436"
      },
      "geometry": {
        "type": "Point",
        "coordinates": [
          -61.00254630226368,
          -54.502030755611344
        ]
      }
    },
    {
      "type": "Feature",
      "properties": {
        "norad_id": 63130,
        "name": "COSMOS 2584 (704K)",
        "group": "glo-ops",
        "lat": -26.160938641281984,
        "lon": 65.6617867600238,
        "alt_km": 19140.993463292347,
        "timestamp": "2025-12-20T07:33:51.074097+00:00",
        "meta_object_name": "COSMOS 2584 (704K)",
        "meta_object_id": "2025-042A",
        "meta_epoch": "2025-12-18T11:25:35.911776",
        "meta_mean_motion": 2.13103072,
        "meta_eccentricity": 0.00077091,
        "meta_inclination": 64.979,
        "meta_ra_of_asc_node": 78.9506,
        "meta_arg_of_pericenter": 218.5301,
        "meta_mean_anomaly": 141.4378,
        "meta_ephemeris_type": 0,
        "meta_classification_type": "U",
        "meta_norad_cat_id": 63130,
        "meta_element_set_no": 999,
        "meta_rev_at_epoch": 619,
        "meta_bstar": 0,
        "meta_mean_motion_dot": -3.8e-07,
        "meta_mean_motion_ddot": 0,
        "tle_line1": "1 63130U 25042A   25352.47611009 -.00000038  00000+0  00000+0 0  9991",
        "tle_line2": "2 63130  64.9790  78.9506 0007709 218.5301 141.4378  2.13103072  6191"
      },
      "geometry": {
        "type": "Point",
        "coordinates": [
          65.6617867600238,
          -26.160938641281984
        ]
      }
    },
    {
      "type": "Feature",
      "properties": {
        "norad_id": 65590,
        "name": "COSMOS 2596 (708K)",
        "group": "glo-ops",
        "lat": 64.72837892361522,
        "lon": 49.75231721471822,
        "alt_km": 19151.58336992866,
        "timestamp": "2025-12-20T07:33:51.074107+00:00",
        "meta_object_name": "COSMOS 2596 (708K)",
        "meta_object_id": "2025-206B",
        "meta_epoch": "2025-12-19T12:37:39.326304",
        "meta_mean_motion": 2.13100498,
        "meta_eccentricity": 0.0014057,
        "meta_inclination": 64.7407,
        "meta_ra_of_asc_node": 321.239,
        "meta_arg_of_pericenter": 306.9222,
        "meta_mean_anomaly": 257.0198,
        "meta_ephemeris_type": 0,
        "meta_classification_type": "U",
        "meta_norad_cat_id": 65590,
        "meta_element_set_no": 999,
        "meta_rev_at_epoch": 208,
        "meta_bstar": 0,
        "meta_mean_motion_dot": -5.9e-07,
        "meta_mean_motion_ddot": 0,
        "tle_line1": "1 65590U 25206B   25353.52614961 -.00000059  00000+0  00000+0 0  9995",
        "tle_line2": "2 65590  64.7407 321.2390 0014057 306.9222 257.0198  2.13100498  2086"
      },
      "geometry": {
        "type": "Point",
        "coordinates": [
          49.75231721471822,
          64.72837892361522
        ]
      }
    }
  ]
}